<?xml version="1.0" encoding="UTF-8"?>
<kml xmlns="http://www.opengis.net/kml/2.2" xmlns:gx="http://www.google.com/kml/ext/2.2" xmlns:kml="http://www.opengis.net/kml/2.2" xmlns:atom="http://www.w3.org/2005/Atom">
<Document>
	<name>Airport Places.kml</name>
	<StyleMap id="m_ylw-pushpin">
		<Pair>
			<key>normal</key>
			<styleUrl>#s_ylw-pushpin</styleUrl>
		</Pair>
		<Pair>
			<key>highlight</key>
			<styleUrl>#s_ylw-pushpin_hl</styleUrl>
		</Pair>
	</StyleMap>
	<Style id="s_ylw-pushpin">
		<IconStyle>
			<scale>1.2</scale>
			<Icon>
				<href>http://maps.google.com/mapfiles/kml/shapes/cross-hairs.png</href>
			</Icon>
		</IconStyle>
	</Style>
	<Style id="s_ylw-pushpin_hl">
		<IconStyle>
			<scale>1.2</scale>
			<Icon>
				<href>http://maps.google.com/mapfiles/kml/shapes/cross-hairs_highlight.png</href>
			</Icon>
		</IconStyle>
	</Style>
	<Folder>
		<name>Airport Places</name>
		<visibility>0</visibility>
		<open>1</open>
		<Placemark>
			<name>Smoke Room Practice Area</name>
			<visibility>0</visibility>
			<LookAt>
				<longitude>79.88025797411642</longitude>
				<latitude>7.180741111147563</latitude>
				<altitude>0</altitude>
				<heading>8.070600467261242</heading>
				<tilt>1.038152452065191</tilt>
				<range>1982.03351706309</range>
				<gx:altitudeMode>relativeToSeaFloor</gx:altitudeMode>
			</LookAt>
			<styleUrl>#m_ylw-pushpin</styleUrl>
			<Point>
				<gx:drawOrder>1</gx:drawOrder>
				<coordinates>79.87868732282202,7.185810898494354,0</coordinates>
			</Point>
		</Placemark>
		<Placemark>
			<name>Rescue Traning Tower</name>
			<visibility>0</visibility>
			<LookAt>
				<longitude>79.88025797324372</longitude>
				<latitude>7.180741105041244</latitude>
				<altitude>0</altitude>
				<heading>8.070600467151737</heading>
				<tilt>2.82625447254241</tilt>
				<range>1982.033493913588</range>
				<gx:altitudeMode>relativeToSeaFloor</gx:altitudeMode>
			</LookAt>
			<styleUrl>#m_ylw-pushpin</styleUrl>
			<Point>
				<gx:drawOrder>1</gx:drawOrder>
				<coordinates>79.87948747372269,7.185411121320305,0</coordinates>
			</Point>
		</Placemark>
		<Placemark>
			<name>Wo &amp; SNCO Mess</name>
			<visibility>0</visibility>
			<LookAt>
				<longitude>79.8792440972918</longitude>
				<latitude>7.182255863380097</latitude>
				<altitude>0</altitude>
				<heading>8.070473736341311</heading>
				<tilt>0</tilt>
				<range>1982.033493915008</range>
				<gx:altitudeMode>relativeToSeaFloor</gx:altitudeMode>
			</LookAt>
			<styleUrl>#m_ylw-pushpin</styleUrl>
			<Point>
				<gx:drawOrder>1</gx:drawOrder>
				<coordinates>79.8789294075756,7.183488376172764,0</coordinates>
			</Point>
		</Placemark>
		<Placemark>
			<name>C44 Billet</name>
			<visibility>0</visibility>
			<LookAt>
				<longitude>79.8792440972918</longitude>
				<latitude>7.182255863380097</latitude>
				<altitude>0</altitude>
				<heading>8.070473736341311</heading>
				<tilt>0</tilt>
				<range>1982.033493915008</range>
				<gx:altitudeMode>relativeToSeaFloor</gx:altitudeMode>
			</LookAt>
			<styleUrl>#m_ylw-pushpin</styleUrl>
			<Point>
				<gx:drawOrder>1</gx:drawOrder>
				<coordinates>79.87815609623479,7.181649229878944,0</coordinates>
			</Point>
		</Placemark>
		<Placemark>
			<name>Electronic and Telecommunication</name>
			<visibility>0</visibility>
			<LookAt>
				<longitude>79.8792440972918</longitude>
				<latitude>7.182255863380097</latitude>
				<altitude>0</altitude>
				<heading>8.070473736341311</heading>
				<tilt>0</tilt>
				<range>1982.033493915008</range>
				<gx:altitudeMode>relativeToSeaFloor</gx:altitudeMode>
			</LookAt>
			<styleUrl>#m_ylw-pushpin</styleUrl>
			<Point>
				<gx:drawOrder>1</gx:drawOrder>
				<coordinates>79.87936947570701,7.179790311800327,0</coordinates>
			</Point>
		</Placemark>
		<Placemark>
			<name>Command Agro SLAF Base Katunayake</name>
			<visibility>0</visibility>
			<LookAt>
				<longitude>79.8792440972918</longitude>
				<latitude>7.182255863380097</latitude>
				<altitude>0</altitude>
				<heading>8.070473736341311</heading>
				<tilt>0</tilt>
				<range>1982.033493915008</range>
				<gx:altitudeMode>relativeToSeaFloor</gx:altitudeMode>
			</LookAt>
			<styleUrl>#m_ylw-pushpin</styleUrl>
			<Point>
				<gx:drawOrder>1</gx:drawOrder>
				<coordinates>79.87121351679235,7.178132427942283,0</coordinates>
			</Point>
		</Placemark>
		<Placemark>
			<name>Air Force Ground Katunayake</name>
			<visibility>0</visibility>
			<LookAt>
				<longitude>79.8792440972918</longitude>
				<latitude>7.182255863380097</latitude>
				<altitude>0</altitude>
				<heading>8.070473736341311</heading>
				<tilt>0</tilt>
				<range>1982.033493915008</range>
				<gx:altitudeMode>relativeToSeaFloor</gx:altitudeMode>
			</LookAt>
			<styleUrl>#m_ylw-pushpin</styleUrl>
			<Point>
				<gx:drawOrder>1</gx:drawOrder>
				<coordinates>79.87162544123727,7.187152201222985,0</coordinates>
			</Point>
		</Placemark>
		<Placemark>
			<name>BIA Control Tower</name>
			<visibility>0</visibility>
			<LookAt>
				<longitude>79.8792440972918</longitude>
				<latitude>7.182255863380097</latitude>
				<altitude>0</altitude>
				<heading>8.070473736341311</heading>
				<tilt>0</tilt>
				<range>1982.033493915008</range>
				<gx:altitudeMode>relativeToSeaFloor</gx:altitudeMode>
			</LookAt>
			<styleUrl>#m_ylw-pushpin</styleUrl>
			<Point>
				<gx:drawOrder>1</gx:drawOrder>
				<coordinates>79.88669049133674,7.178903085223277,0</coordinates>
			</Point>
		</Placemark>
		<Placemark>
			<name>C242 Airman Bilate</name>
			<visibility>0</visibility>
			<LookAt>
				<longitude>79.8792440972918</longitude>
				<latitude>7.182255863380097</latitude>
				<altitude>0</altitude>
				<heading>8.070473736341311</heading>
				<tilt>0</tilt>
				<range>1982.033493915008</range>
				<gx:altitudeMode>relativeToSeaFloor</gx:altitudeMode>
			</LookAt>
			<styleUrl>#m_ylw-pushpin</styleUrl>
			<Point>
				<gx:drawOrder>1</gx:drawOrder>
				<coordinates>79.8740181018383,7.188140229613415,0</coordinates>
			</Point>
		</Placemark>
		<Placemark>
			<name>Ceylon Petroleum Corporation Aviation</name>
			<visibility>0</visibility>
			<LookAt>
				<longitude>79.88040379096981</longitude>
				<latitude>7.170586707740665</latitude>
				<altitude>0</altitude>
				<heading>8.070619536703846</heading>
				<tilt>0</tilt>
				<range>1982.033493915077</range>
				<gx:altitudeMode>relativeToSeaFloor</gx:altitudeMode>
			</LookAt>
			<styleUrl>#m_ylw-pushpin</styleUrl>
			<Point>
				<gx:drawOrder>1</gx:drawOrder>
				<coordinates>79.88023377074835,7.168435427414257,0</coordinates>
			</Point>
		</Placemark>
		<Placemark>
			<name>Air Cargo Village Entrance</name>
			<visibility>0</visibility>
			<LookAt>
				<longitude>79.88040379096981</longitude>
				<latitude>7.170586707740665</latitude>
				<altitude>0</altitude>
				<heading>8.070619536703846</heading>
				<tilt>0</tilt>
				<range>1982.033493915077</range>
				<gx:altitudeMode>relativeToSeaFloor</gx:altitudeMode>
			</LookAt>
			<styleUrl>#m_ylw-pushpin</styleUrl>
			<Point>
				<gx:drawOrder>1</gx:drawOrder>
				<coordinates>79.88100694873344,7.166885156164287,0</coordinates>
			</Point>
		</Placemark>
		<Placemark>
			<name>Departure Terminal</name>
			<visibility>0</visibility>
			<LookAt>
				<longitude>79.88890161263585</longitude>
				<latitude>7.174546676171089</latitude>
				<altitude>0</altitude>
				<heading>8.07168063574672</heading>
				<tilt>0</tilt>
				<range>1982.0334939127</range>
				<gx:altitudeMode>relativeToSeaFloor</gx:altitudeMode>
			</LookAt>
			<styleUrl>#m_ylw-pushpin</styleUrl>
			<Point>
				<gx:drawOrder>1</gx:drawOrder>
				<coordinates>79.88712878512305,7.1733611351253,0</coordinates>
			</Point>
		</Placemark>
		<Placemark>
			<name>Arrival Terminal</name>
			<visibility>0</visibility>
			<LookAt>
				<longitude>79.88863072212789</longitude>
				<latitude>7.174208190143603</latitude>
				<altitude>0</altitude>
				<heading>8.071646807140546</heading>
				<tilt>0</tilt>
				<range>1982.03349391385</range>
				<gx:altitudeMode>relativeToSeaFloor</gx:altitudeMode>
			</LookAt>
			<styleUrl>#m_ylw-pushpin</styleUrl>
			<Point>
				<gx:drawOrder>1</gx:drawOrder>
				<coordinates>79.88809906425091,7.174380394309758,0</coordinates>
			</Point>
		</Placemark>
		<Placemark>
			<name>Terminal Car Park</name>
			<visibility>0</visibility>
			<LookAt>
				<longitude>79.88863072212789</longitude>
				<latitude>7.174208190143603</latitude>
				<altitude>0</altitude>
				<heading>8.071646807140546</heading>
				<tilt>0</tilt>
				<range>1982.03349391385</range>
				<gx:altitudeMode>relativeToSeaFloor</gx:altitudeMode>
			</LookAt>
			<styleUrl>#m_ylw-pushpin</styleUrl>
			<Point>
				<gx:drawOrder>1</gx:drawOrder>
				<coordinates>79.88848603456258,7.175897286983141,0</coordinates>
			</Point>
		</Placemark>
		<Placemark>
			<name>Runaway Center Point</name>
			<visibility>0</visibility>
			<description>The total distance of the runaway calcualted as 3300m.</description>
			<LookAt>
				<longitude>79.88769730708006</longitude>
				<latitude>7.179109551957054</latitude>
				<altitude>0</altitude>
				<heading>8.071530681041226</heading>
				<tilt>0</tilt>
				<range>5084.981794429304</range>
				<gx:altitudeMode>relativeToSeaFloor</gx:altitudeMode>
			</LookAt>
			<styleUrl>#m_ylw-pushpin</styleUrl>
			<Point>
				<gx:drawOrder>1</gx:drawOrder>
				<coordinates>79.88377847048527,7.181176840963235,0</coordinates>
			</Point>
		</Placemark>
		<atom:link rel="app" href="https://www.google.com/earth/about/versions/#earth-pro" title="Google Earth Pro 7.3.7.1155"></atom:link>
	</Folder>
</Document>
</kml>
